{
    "week": 294,
    "satellites": [
        {
            "Name": "GSAT0218 (GALILEO 22)",
            "Line1": "1 43058U 17079D   24332.52265361 -.00000001  00000+0  00000+0 0  9998",
            "Line2": "2 43058  55.2700 237.0992 0003354 296.9999  63.0169  1.70473953 43327",
            "SatelliteNumber": "43058",
            "Classification": "U",
            "LaunchYear": "17",
            "LaunchNumber": "079",
            "PieceOfLaunch": "D",
            "EpochYear": "24",
            "EpochDay": 332.52265361,
            "FirstDerivativeMeanMotion": -1e-08,
            "SecondDerivativeMeanMotion": "00000+0",
            "BSTAR": "00000+0",
            "SetNumber": "999",
            "Inclination": 55.27,
            "RAAN": 237.0992,
            "Eccentricity": 0.0003354,
            "ArgumentOfPerigee": 296.9999,
            "MeanAnomaly": 63.0169,
            "MeanMotion": 1.70473953,
            "RevolutionNumber": "4332"
        },
        {
            "Name": "GSAT0221 (GALILEO 25)",
            "Line1": "1 43564U 18060A   24333.59690372 -.00000071  00000+0  00000+0 0  9990",
            "Line2": "2 43564  57.2955 357.0402 0006196 274.8113  85.1747  1.70476053 39531",
            "SatelliteNumber": "43564",
            "Classification": "U",
            "LaunchYear": "18",
            "LaunchNumber": "060",
            "PieceOfLaunch": "A",
            "EpochYear": "24",
            "EpochDay": 333.59690372,
            "FirstDerivativeMeanMotion": -7.1e-07,
            "SecondDerivativeMeanMotion": "00000+0",
            "BSTAR": "00000+0",
            "SetNumber": "999",
            "Inclination": 57.2955,
            "RAAN": 357.0402,
            "Eccentricity": 0.0006196,
            "ArgumentOfPerigee": 274.8113,
            "MeanAnomaly": 85.1747,
            "MeanMotion": 1.70476053,
            "RevolutionNumber": "3953"
        },
        {
            "Name": "GSAT0222 (GALILEO 26)",
            "Line1": "1 43565U 18060B   24327.94978855 -.00000091  00000+0  00000+0 0  9990",
            "Line2": "2 43565  57.2994 357.1948 0005723 251.8543 108.1328  1.70475794 39473",
            "SatelliteNumber": "43565",
            "Classification": "U",
            "LaunchYear": "18",
            "LaunchNumber": "060",
            "PieceOfLaunch": "B",
            "EpochYear": "24",
            "EpochDay": 327.94978855,
            "FirstDerivativeMeanMotion": -9.1e-07,
            "SecondDerivativeMeanMotion": "00000+0",
            "BSTAR": "00000+0",
            "SetNumber": "999",
            "Inclination": 57.2994,
            "RAAN": 357.1948,
            "Eccentricity": 0.0005723,
            "ArgumentOfPerigee": 251.8543,
            "MeanAnomaly": 108.1328,
            "MeanMotion": 1.70475794,
            "RevolutionNumber": "3947"
        },
        {
            "Name": "GSAT0219 (GALILEO 23)",
            "Line1": "1 43566U 18060C   24332.86412661 -.00000073  00000+0  00000+0 0  9996",
            "Line2": "2 43566  57.2982 357.0639 0005252 278.3159  81.6811  1.70476094 39534",
            "SatelliteNumber": "43566",
            "Classification": "U",
            "LaunchYear": "18",
            "LaunchNumber": "060",
            "PieceOfLaunch": "C",
            "EpochYear": "24",
            "EpochDay": 332.86412661,
            "FirstDerivativeMeanMotion": -7.3e-07,
            "SecondDerivativeMeanMotion": "00000+0",
            "BSTAR": "00000+0",
            "SetNumber": "999",
            "Inclination": 57.2982,
            "RAAN": 357.0639,
            "Eccentricity": 0.0005252,
            "ArgumentOfPerigee": 278.3159,
            "MeanAnomaly": 81.6811,
            "MeanMotion": 1.70476094,
            "RevolutionNumber": "3953"
        },
        {
            "Name": "GSAT0220 (GALILEO 24)",
            "Line1": "1 43567U 18060D   24330.73852504 -.00000082  00000+0  00000+0 0  9995",
            "Line2": "2 43567  57.2979 357.1214 0005436 274.7072  85.2844  1.70476183 39488",
            "SatelliteNumber": "43567",
            "Classification": "U",
            "LaunchYear": "18",
            "LaunchNumber": "060",
            "PieceOfLaunch": "D",
            "EpochYear": "24",
            "EpochDay": 330.73852504,
            "FirstDerivativeMeanMotion": -8.2e-07,
            "SecondDerivativeMeanMotion": "00000+0",
            "BSTAR": "00000+0",
            "SetNumber": "999",
            "Inclination": 57.2979,
            "RAAN": 357.1214,
            "Eccentricity": 0.0005436,
            "ArgumentOfPerigee": 274.7072,
            "MeanAnomaly": 85.2844,
            "MeanMotion": 1.70476183,
            "RevolutionNumber": "3948"
        },
        {
            "Name": "GSAT0223 (GALILEO 27)",
            "Line1": "1 49809U 21116A   24332.93461484 -.00000073  00000+0  00000+0 0  9993",
            "Line2": "2 49809  57.2881 356.9556 0004431 251.4617 106.8500  1.70476214 18528",
            "SatelliteNumber": "49809",
            "Classification": "U",
            "LaunchYear": "21",
            "LaunchNumber": "116",
            "PieceOfLaunch": "A",
            "EpochYear": "24",
            "EpochDay": 332.93461484,
            "FirstDerivativeMeanMotion": -7.3e-07,
            "SecondDerivativeMeanMotion": "00000+0",
            "BSTAR": "00000+0",
            "SetNumber": "999",
            "Inclination": 57.2881,
            "RAAN": 356.9556,
            "Eccentricity": 0.0004431,
            "ArgumentOfPerigee": 251.4617,
            "MeanAnomaly": 106.85,
            "MeanMotion": 1.70476214,
            "RevolutionNumber": "1852"
        },
        {
            "Name": "GSAT0224 (GALILEO 28)",
            "Line1": "1 49810U 21116B   24331.00081519 -.00000081  00000+0  00000+0 0  9998",
            "Line2": "2 49810  57.2891 357.0061 0005806 253.9738 110.0286  1.70476300 18526",
            "SatelliteNumber": "49810",
            "Classification": "U",
            "LaunchYear": "21",
            "LaunchNumber": "116",
            "PieceOfLaunch": "B",
            "EpochYear": "24",
            "EpochDay": 331.00081519,
            "FirstDerivativeMeanMotion": -8.1e-07,
            "SecondDerivativeMeanMotion": "00000+0",
            "BSTAR": "00000+0",
            "SetNumber": "999",
            "Inclination": 57.2891,
            "RAAN": 357.0061,
            "Eccentricity": 0.0005806,
            "ArgumentOfPerigee": 253.9738,
            "MeanAnomaly": 110.0286,
            "MeanMotion": 1.704763,
            "RevolutionNumber": "1852"
        },
        {
            "Name": "GSAT0225 (GALILEO 29)",
            "Line1": "1 59598U 24079A   24333.05676885  .00000051  00000+0  00000+0 0  9992",
            "Line2": "2 59598  54.7870 116.9222 0002765 166.8536   9.9963  1.70474940  3664",
            "SatelliteNumber": "59598",
            "Classification": "U",
            "LaunchYear": "24",
            "LaunchNumber": "079",
            "PieceOfLaunch": "A",
            "EpochYear": "24",
            "EpochDay": 333.05676885,
            "FirstDerivativeMeanMotion": 5.1e-07,
            "SecondDerivativeMeanMotion": "00000+0",
            "BSTAR": "00000+0",
            "SetNumber": "999",
            "Inclination": 54.787,
            "RAAN": 116.9222,
            "Eccentricity": 0.0002765,
            "ArgumentOfPerigee": 166.8536,
            "MeanAnomaly": 9.9963,
            "MeanMotion": 1.7047494,
            "RevolutionNumber": "366"
        },
        {
            "Name": "GSAT0227 (GALILEO 30)",
            "Line1": "1 59600U 24079C   24332.95190713  .00000051  00000+0  00000+0 0  9995",
            "Line2": "2 59600  54.7820 116.9254 0003630 119.1248 240.8862  1.70474806  3712",
            "SatelliteNumber": "59600",
            "Classification": "U",
            "LaunchYear": "24",
            "LaunchNumber": "079",
            "PieceOfLaunch": "C",
            "EpochYear": "24",
            "EpochDay": 332.95190713,
            "FirstDerivativeMeanMotion": 5.1e-07,
            "SecondDerivativeMeanMotion": "00000+0",
            "BSTAR": "00000+0",
            "SetNumber": "999",
            "Inclination": 54.782,
            "RAAN": 116.9254,
            "Eccentricity": 0.000363,
            "ArgumentOfPerigee": 119.1248,
            "MeanAnomaly": 240.8862,
            "MeanMotion": 1.70474806,
            "RevolutionNumber": "371"
        },
        {
            "Name": "GSAT0232 (GALILEO 32)",
            "Line1": "1 61182U 24167A   24321.21686440 -.00000004  00000+0  00000+0 0  9994",
            "Line2": "2 61182  55.3884 237.1378 0015743 276.0571  83.7985  1.73178105  1028",
            "SatelliteNumber": "61182",
            "Classification": "U",
            "LaunchYear": "24",
            "LaunchNumber": "167",
            "PieceOfLaunch": "A",
            "EpochYear": "24",
            "EpochDay": 321.2168644,
            "FirstDerivativeMeanMotion": -4e-08,
            "SecondDerivativeMeanMotion": "00000+0",
            "BSTAR": "00000+0",
            "SetNumber": "999",
            "Inclination": 55.3884,
            "RAAN": 237.1378,
            "Eccentricity": 0.0015743,
            "ArgumentOfPerigee": 276.0571,
            "MeanAnomaly": 83.7985,
            "MeanMotion": 1.73178105,
            "RevolutionNumber": "102"
        }
    ]
}